OBJECT_NAME,OBJECT_ID,EPOCH,MEAN_MOTION,ECCENTRICITY,INCLINATION,RA_OF_ASC_NODE,ARG_OF_PERICENTER,MEAN_ANOMALY,EPHEMERIS_TYPE,CLASSIFICATION_TYPE,NORAD_CAT_ID,ELEMENT_SET_NO,REV_AT_EPOCH,BSTAR,MEAN_MOTION_DOT,MEAN_MOTION_DDOT
STARLINK-36992,2026-049H,2026-07-07T23:18:21.352608,15.33456993,.00013881,97.2846,210.0540,86.3008,273.8394,0,U,68149,999,1808,.38537969E-3,.12392E-3,0
STARLINK-37060,2026-049J,2026-07-08T12:01:49.961280,15.33466346,.00006362,97.2840,210.5572,74.2487,285.8826,0,U,68150,999,1816,.40958648E-3,.1318E-3,0
STARLINK-37073,2026-049K,2026-07-08T12:09:39.480480,15.33466468,.00006031,97.2843,210.5456,96.7107,263.4205,0,U,68151,999,1816,.49733076E-3,.16025E-3,0
STARLINK-37049,2026-049L,2026-07-08T00:44:29.897376,15.33450594,.00013087,97.2843,210.1242,80.5568,279.5823,0,U,68152,999,1809,.30423651E-3,.9761E-4,0
STARLINK-37072,2026-049M,2026-07-08T07:35:35.262240,15.33475439,.00018619,97.2843,210.3474,122.3075,237.8348,0,U,68153,999,1813,.8523905E-3,.27571E-3,0
STARLINK-36241,2026-049N,2026-07-07T22:58:47.143776,15.33448877,.00007239,97.2844,209.9185,115.4259,244.7059,0,U,68154,999,1807,.36357876E-3,.11682E-3,0
STARLINK-37048,2026-049P,2026-07-08T00:36:39.773376,15.33453812,.00009601,97.2844,209.9817,103.3109,256.8241,0,U,68155,999,1808,.32621844E-3,.10474E-3,0
STARLINK-36313,2026-049Q,2026-07-08T11:26:35.443968,15.33451101,.00006519,97.2822,210.4363,61.7667,298.3641,0,U,68156,999,1815,.56846905E-3,.18325E-3,0
STARLINK-37064,2026-049R,2026-07-08T07:15:59.861088,15.33509595,.00012884,97.2847,210.3657,107.6371,252.5012,0,U,68157,999,1813,.97150188E-3,.31484E-3,0
STARLINK-37069,2026-049S,2026-07-08T11:22:41.257632,15.33462877,.00008687,97.2844,210.4412,50.4075,309.7245,0,U,68158,999,1815,.41530996E-3,.13364E-3,0
STARLINK-37053,2026-049T,2026-07-08T12:25:19.302528,15.33466301,.00003811,97.2849,210.5358,108.1224,252.0060,0,U,68159,999,1816,.54468256E-3,.17562E-3,0
STARLINK-36306,2026-049U,2026-07-08T14:14:55.853664,15.33519906,.00010945,97.2840,210.5861,106.8789,253.2574,0,U,68160,999,1817,.11412058E-2,.37035E-3,0
STARLINK-37057,2026-049V,2026-07-08T08:06:54.074304,15.33451512,.00008572,97.2836,210.3208,96.3353,263.7988,0,U,68161,999,1813,.32804856E-3,.10532E-3,0
STARLINK-37013,2026-049W,2026-07-08T14:07:07.277088,15.33467854,.00002802,97.2865,210.5906,31.4007,328.7252,0,U,68162,999,1817,.40157703E-3,.12921E-3,0
STARLINK-36958,2026-049X,2026-07-08T11:38:20.744448,15.33464596,.00008906,97.2860,210.4276,120.7251,239.4080,0,U,68163,999,1815,.43646391E-3,.1405E-3,0
STARLINK-37002,2026-049Y,2026-07-08T14:18:52.149888,15.33474521,.00005245,97.2855,210.5799,55.8008,304.3284,0,U,68164,999,1817,.66393207E-3,.2144E-3,0
STARLINK-36971,2026-049Z,2026-07-08T07:12:05.621184,15.33462645,.00006211,97.2856,210.3725,78.1075,282.0237,0,U,68165,999,1813,.58560924E-3,.18888E-3,0
STARLINK-36273,2026-049AA,2026-07-08T00:38:47.643648,15.33453237,.00014352,97.2842,210.8928,111.7673,248.3722,0,U,68166,999,1814,.34427444E-3,.11059E-3,0
STARLINK-36969,2026-050A,2026-07-07T22:44:24.791424,15.34413325,.00009938,53.1583,66.1552,130.9045,229.2044,0,U,68167,999,1912,.34136702E-3,.1118E-3,0
STARLINK-36984,2026-050B,2026-07-07T22:35:19.921056,15.34404174,.00011193,53.1577,66.1234,92.5828,267.5302,0,U,68168,999,1912,.12986039E-3,.4014E-4,0
STARLINK-37077,2026-050C,2026-07-08T04:11:15.623232,15.34392331,.00013378,53.1596,65.4361,61.7557,298.3580,0,U,68169,999,1915,.58696209E-3,.19502E-3,0
STARLINK-37003,2026-050D,2026-07-08T09:16:45.196608,15.34395221,.00012597,53.1595,63.9133,74.1636,285.9505,0,U,68170,999,1919,.54557317E-3,.18099E-3,0
STARLINK-37034,2026-050E,2026-07-08T08:25:23.732832,15.34409992,.0001134,53.1579,64.3997,104.6063,255.5066,0,U,68171,999,1918,.98259837E-3,.32979E-3,0
STARLINK-37031,2026-050F,2026-07-08T08:49:36.611040,15.34415063,.00010625,53.1580,64.5070,69.1191,290.9925,0,U,68172,999,1918,.95212539E-3,.31945E-3,0
STARLINK-37076,2026-050G,2026-07-08T08:58:42.241728,15.34396212,.00015397,53.1589,64.5367,83.6117,276.5061,0,U,68173,999,1918,.41071506E-3,.13524E-3,0
STARLINK-37078,2026-050H,2026-07-08T08:46:34.633632,15.34412555,.00007468,53.1573,64.4835,86.8703,273.2385,0,U,68174,999,1918,.51396894E-3,.17036E-3,0
STARLINK-36886,2026-050J,2026-07-08T01:39:53.609472,15.34399474,.00013814,53.1578,65.4791,83.0401,277.0758,0,U,68175,999,1914,.5295126E-3,.17556E-3,0
STARLINK-36905,2026-050K,2026-07-08T08:43:33.037248,15.34400748,.0001418,53.1586,64.4673,90.4261,269.6904,0,U,68176,999,1918,.29250012E-3,.9519E-4,0
STARLINK-36668,2026-050L,2026-07-08T03:22:46.759872,15.34401624,.00012388,53.1581,65.2341,85.3976,274.7168,0,U,68177,999,1915,.66716611E-3,.22233E-3,0
STARLINK-36677,2026-050M,2026-07-08T08:19:17.902272,15.34397778,.00012451,53.1574,64.3586,95.6674,264.4471,0,U,68178,999,1918,.75795079E-3,.25317E-3,0
