STARLINK-36992          
1 68149U 26049H   26188.97108047  .00012392  00000+0  38538-3 0  9996
2 68149  97.2846 210.0540 0001388  86.3008 273.8394 15.33456993 18084
STARLINK-37060          
1 68150U 26049J   26189.50127270  .00013180  00000+0  40959-3 0  9993
2 68150  97.2840 210.5572 0000636  74.2487 285.8826 15.33466346 18167
STARLINK-37073          
1 68151U 26049K   26189.50670695  .00016025  00000+0  49733-3 0  9998
2 68151  97.2843 210.5456 0000603  96.7107 263.4205 15.33466468 18162
STARLINK-37049          
1 68152U 26049L   26189.03090159  .00009761  00000+0  30424-3 0  9994
2 68152  97.2843 210.1242 0001308  80.5568 279.5823 15.33450594 18096
STARLINK-37072          
1 68153U 26049M   26189.31638035  .00027571  00000+0  85239-3 0  9990
2 68153  97.2843 210.3474 0001861 122.3075 237.8348 15.33475439 18137
STARLINK-36241          
1 68154U 26049N   26188.95749009  .00011682  00000+0  36358-3 0  9998
2 68154  97.2844 209.9185 0000723 115.4259 244.7059 15.33448877 18070
STARLINK-37048          
1 68155U 26049P   26189.02546034  .00010474  00000+0  32622-3 0  9999
2 68155  97.2844 209.9817 0000960 103.3109 256.8241 15.33453812 18089
STARLINK-36313          
1 68156U 26049Q   26189.47679912  .00018325  00000+0  56847-3 0  9999
2 68156  97.2822 210.4363 0000651  61.7667 298.3641 15.33451101 18154
STARLINK-37064          
1 68157U 26049R   26189.30277617  .00031484  00000+0  97150-3 0  9991
2 68157  97.2847 210.3657 0001288 107.6371 252.5012 15.33509595 18139
STARLINK-37069          
1 68158U 26049S   26189.47408863  .00013364  00000+0  41531-3 0  9998
2 68158  97.2844 210.4412 0000868  50.4075 309.7245 15.33462877 18152
STARLINK-37053          
1 68159U 26049T   26189.51758452  .00017562  00000+0  54468-3 0  9993
2 68159  97.2849 210.5358 0000381 108.1224 252.0060 15.33466301 18167
STARLINK-36306          
1 68160U 26049U   26189.59370201  .00037035  00000+0  11412-2 0  9993
2 68160  97.2840 210.5861 0001094 106.8789 253.2574 15.33519906 18176
STARLINK-37057          
1 68161U 26049V   26189.33812586  .00010532  00000+0  32805-3 0  9996
2 68161  97.2836 210.3208 0000857  96.3353 263.7988 15.33451512 18130
STARLINK-37013          
1 68162U 26049W   26189.58827867  .00012921  00000+0  40158-3 0  9996
2 68162  97.2865 210.5906 0000280  31.4007 328.7252 15.33467854 18172
STARLINK-36958          
1 68163U 26049X   26189.48496232  .00014050  00000+0  43646-3 0  9994
2 68163  97.2860 210.4276 0000890 120.7251 239.4080 15.33464596 18152
STARLINK-37002          
1 68164U 26049Y   26189.59643692  .00021440  00000+0  66393-3 0  9996
2 68164  97.2855 210.5799 0000524  55.8008 304.3284 15.33474521 18179
STARLINK-36971          
1 68165U 26049Z   26189.30006506  .00018888  00000+0  58561-3 0  9993
2 68165  97.2856 210.3725 0000621  78.1075 282.0237 15.33462645 18138
STARLINK-36273          
1 68166U 26049AA  26189.02694032  .00011059  00000+0  34427-3 0  9998
2 68166  97.2842 210.8928 0001435 111.7673 248.3722 15.33453237 18148
STARLINK-36969          
1 68167U 26050A   26188.94750916  .00011180  00000+0  34137-3 0  9998
2 68167  53.1583  66.1552 0000993 130.9045 229.2044 15.34413325 19120
STARLINK-36984          
1 68168U 26050B   26188.94120279  .00004014  00000+0  12986-3 0  9998
2 68168  53.1577  66.1234 0001119  92.5828 267.5302 15.34404174 19128
STARLINK-37077          
1 68169U 26050C   26189.17448638  .00019502  00000+0  58696-3 0  9993
2 68169  53.1596  65.4361 0001337  61.7557 298.3580 15.34392331 19156
STARLINK-37003          
1 68170U 26050D   26189.38663422  .00018099  00000+0  54557-3 0  9990
2 68170  53.1595  63.9133 0001259  74.1636 285.9505 15.34395221 19190
STARLINK-37034          
1 68171U 26050E   26189.35096913  .00032979  00000+0  98260-3 0  9995
2 68171  53.1579  64.3997 0001134 104.6063 255.5066 15.34409992 19186
STARLINK-37031          
1 68172U 26050F   26189.36778485  .00031945  00000+0  95213-3 0  9995
2 68172  53.1580  64.5070 0001062  69.1191 290.9925 15.34415063 19183
STARLINK-37076          
1 68173U 26050G   26189.37410002  .00013524  00000+0  41072-3 0  9992
2 68173  53.1589  64.5367 0001539  83.6117 276.5061 15.34396212 19185
STARLINK-37078          
1 68174U 26050H   26189.36567863  .00017036  00000+0  51397-3 0  9993
2 68174  53.1573  64.4835 0000746  86.8703 273.2385 15.34412555 19185
STARLINK-36886          
1 68175U 26050J   26189.06937048  .00017556  00000+0  52951-3 0  9991
2 68175  53.1578  65.4791 0001381  83.0401 277.0758 15.34399474 19149
STARLINK-36905          
1 68176U 26050K   26189.36357682  .00009519  00000+0  29250-3 0  9991
2 68176  53.1586  64.4673 0001418  90.4261 269.6904 15.34400748 19185
STARLINK-36668          
1 68177U 26050L   26189.14081898  .00022233  00000+0  66717-3 0  9998
2 68177  53.1581  65.2341 0001238  85.3976 274.7168 15.34401624 19158
STARLINK-36677          
1 68178U 26050M   26189.34673498  .00025317  00000+0  75795-3 0  9996
2 68178  53.1574  64.3586 0001245  95.6674 264.4471 15.34397778 19189
